{
  "links" : {
    "next" : "https://api.nasa.gov/neo/rest/v1/feed?start_date=2004-03-16&end_date=2004-03-16&detailed=true&api_key=t0TVs3DtDT2H8Oy2Zy8m2eVrNsAVKAexjcZXUckd",
    "prev" : "https://api.nasa.gov/neo/rest/v1/feed?start_date=2004-03-14&end_date=2004-03-14&detailed=true&api_key=t0TVs3DtDT2H8Oy2Zy8m2eVrNsAVKAexjcZXUckd",
    "self" : "https://api.nasa.gov/neo/rest/v1/feed?start_date=2004-03-15&end_date=2004-03-15&detailed=true&api_key=t0TVs3DtDT2H8Oy2Zy8m2eVrNsAVKAexjcZXUckd"
  },
  "element_count" : 8,
  "near_earth_objects" : {
    "2004-03-15" : [ {
      "links" : {
        "self" : "https://api.nasa.gov/neo/rest/v1/neo/2271480?api_key=t0TVs3DtDT2H8Oy2Zy8m2eVrNsAVKAexjcZXUckd"
      },
      "neo_reference_id" : "2271480",
      "name" : "271480 (2004 FX31)",
      "nasa_jpl_url" : "http://ssd.jpl.nasa.gov/sbdb.cgi?sstr=2271480",
      "absolute_magnitude_h" : 17.6,
      "estimated_diameter" : {
        "kilometers" : {
          "estimated_diameter_min" : 0.8027031673,
          "estimated_diameter_max" : 1.7948988478
        },
        "meters" : {
          "estimated_diameter_min" : 802.7031672829,
          "estimated_diameter_max" : 1794.8988477988
        },
        "miles" : {
          "estimated_diameter_min" : 0.4987764698,
          "estimated_diameter_max" : 1.115298092
        },
        "feet" : {
          "estimated_diameter_min" : 2633.5406593483,
          "estimated_diameter_max" : 5888.7759358124
        }
      },
      "is_potentially_hazardous_asteroid" : false,
      "close_approach_data" : [ {
        "close_approach_date" : "2004-03-15",
        "epoch_date_close_approach" : 1079337600000,
        "relative_velocity" : {
          "kilometers_per_second" : "18.2839272228",
          "kilometers_per_hour" : "65822.1380019331",
          "miles_per_hour" : "40899.3168045901"
        },
        "miss_distance" : {
          "astronomical" : "0.0659081169",
          "lunar" : "25.6382579803",
          "kilometers" : "9859714",
          "miles" : "6126542.5"
        },
        "orbiting_body" : "Earth"
      } ],
      "orbital_data" : {
        "orbit_id" : "146",
        "orbit_determination_date" : "2017-06-26 06:20:37",
        "orbit_uncertainty" : "0",
        "minimum_orbit_intersection" : ".0649142",
        "jupiter_tisserand_invariant" : "4.929",
        "epoch_osculation" : "2458000.5",
        "eccentricity" : ".4419376339118631",
        "semi_major_axis" : "1.260735253781424",
        "inclination" : "24.7506013179309",
        "ascending_node_longitude" : "169.1842069394714",
        "orbital_period" : "517.0520597711061",
        "perihelion_distance" : ".7035688987359894",
        "perihelion_argument" : "285.7540019490307",
        "aphelion_distance" : "1.817901608826859",
        "perihelion_time" : "2458201.188713829354",
        "mean_anomaly" : "220.2695113320875",
        "mean_motion" : ".6962548416485731",
        "equinox" : "J2000"
      }
    }, {
      "links" : {
        "self" : "https://api.nasa.gov/neo/rest/v1/neo/3082930?api_key=t0TVs3DtDT2H8Oy2Zy8m2eVrNsAVKAexjcZXUckd"
      },
      "neo_reference_id" : "3082930",
      "name" : "(2001 SY269)",
      "nasa_jpl_url" : "http://ssd.jpl.nasa.gov/sbdb.cgi?sstr=3082930",
      "absolute_magnitude_h" : 21.5,
      "estimated_diameter" : {
        "kilometers" : {
          "estimated_diameter_min" : 0.1332155667,
          "estimated_diameter_max" : 0.2978790628
        },
        "meters" : {
          "estimated_diameter_min" : 133.2155666981,
          "estimated_diameter_max" : 297.8790627982
        },
        "miles" : {
          "estimated_diameter_min" : 0.0827762899,
          "estimated_diameter_max" : 0.1850934111
        },
        "feet" : {
          "estimated_diameter_min" : 437.0589598459,
          "estimated_diameter_max" : 977.2935443908
        }
      },
      "is_potentially_hazardous_asteroid" : true,
      "close_approach_data" : [ {
        "close_approach_date" : "2004-03-15",
        "epoch_date_close_approach" : 1079337600000,
        "relative_velocity" : {
          "kilometers_per_second" : "15.4989848984",
          "kilometers_per_hour" : "55796.3456342468",
          "miles_per_hour" : "34669.6793192352"
        },
        "miss_distance" : {
          "astronomical" : "0.042762964",
          "lunar" : "16.6347942352",
          "kilometers" : "6397248.5",
          "miles" : "3975066"
        },
        "orbiting_body" : "Earth"
      } ],
      "orbital_data" : {
        "orbit_id" : "12",
        "orbit_determination_date" : "2017-04-06 09:16:05",
        "orbit_uncertainty" : "1",
        "minimum_orbit_intersection" : ".0202338",
        "jupiter_tisserand_invariant" : "4.008",
        "epoch_osculation" : "2458000.5",
        "eccentricity" : ".5974091014169081",
        "semi_major_axis" : "1.679863381190739",
        "inclination" : "1.866232102899082",
        "ascending_node_longitude" : "232.2708008807646",
        "orbital_period" : "795.260426188989",
        "perihelion_distance" : ".6762977081304108",
        "perihelion_argument" : "223.6572374355194",
        "aphelion_distance" : "2.683429054251067",
        "perihelion_time" : "2457801.758192157590",
        "mean_anomaly" : "89.96681900309342",
        "mean_motion" : ".4526818990920694",
        "equinox" : "J2000"
      }
    }, {
      "links" : {
        "self" : "https://api.nasa.gov/neo/rest/v1/neo/3177201?api_key=t0TVs3DtDT2H8Oy2Zy8m2eVrNsAVKAexjcZXUckd"
      },
      "neo_reference_id" : "3177201",
      "name" : "(2004 EU22)",
      "nasa_jpl_url" : "http://ssd.jpl.nasa.gov/sbdb.cgi?sstr=3177201",
      "absolute_magnitude_h" : 24.0,
      "estimated_diameter" : {
        "kilometers" : {
          "estimated_diameter_min" : 0.0421264611,
          "estimated_diameter_max" : 0.0941976306
        },
        "meters" : {
          "estimated_diameter_min" : 42.1264610556,
          "estimated_diameter_max" : 94.1976305719
        },
        "miles" : {
          "estimated_diameter_min" : 0.0261761612,
          "estimated_diameter_max" : 0.0585316759
        },
        "feet" : {
          "estimated_diameter_min" : 138.2101784897,
          "estimated_diameter_max" : 309.0473542854
        }
      },
      "is_potentially_hazardous_asteroid" : false,
      "close_approach_data" : [ {
        "close_approach_date" : "2004-03-15",
        "epoch_date_close_approach" : 1079337600000,
        "relative_velocity" : {
          "kilometers_per_second" : "4.0368528917",
          "kilometers_per_hour" : "14532.6704101696",
          "miles_per_hour" : "9030.0362334745"
        },
        "miss_distance" : {
          "astronomical" : "0.0131616704",
          "lunar" : "5.1198897362",
          "kilometers" : "1968957.875",
          "miles" : "1223453.75"
        },
        "orbiting_body" : "Earth"
      } ],
      "orbital_data" : {
        "orbit_id" : "24",
        "orbit_determination_date" : "2017-04-06 09:13:06",
        "orbit_uncertainty" : "5",
        "minimum_orbit_intersection" : ".01005",
        "jupiter_tisserand_invariant" : "5.362",
        "epoch_osculation" : "2458000.5",
        "eccentricity" : ".1623487598184",
        "semi_major_axis" : "1.175100559158756",
        "inclination" : "5.340199294659664",
        "ascending_node_longitude" : "175.7595721365239",
        "orbital_period" : "465.2763482321173",
        "perihelion_distance" : ".9843244407174235",
        "perihelion_argument" : "328.4669330561069",
        "aphelion_distance" : "1.365876677600088",
        "perihelion_time" : "2458169.690013411966",
        "mean_anomaly" : "229.0919814434201",
        "mean_motion" : ".773733720546661",
        "equinox" : "J2000"
      }
    } ]
  }
}